STARLINK-2068
1 27722C 21017A   21325.15433058 -.00014503  00000-0 -97159-3 0  3257
2 27722  53.0564  42.5396 0001366  74.3430 354.4952 15.06418926    18
